$$SOE
2461288.500000000, A.D. 2026-Sep-05 00:00:00.0000, 3.587909311971908E+08, -3.107447175136431E+08, -2.787622413168848E+04,
2461295.500000000, A.D. 2026-Sep-12 00:00:00.0000, 3.640303848371013E+08, -3.020765067474266E+08, 5.468861516939104E+04,
2461302.500000000, A.D. 2026-Sep-19 00:00:00.0000, 3.691029075883014E+08, -2.932697953796104E+08, 1.372279266633987E+05,
2461309.500000000, A.D. 2026-Sep-26 00:00:00.0000, 3.740044277582596E+08, -2.843272382321283E+08, 2.197033044267297E+05,
2461316.500000000, A.D. 2026-Oct-03 00:00:00.0000, 3.787308773033031E+08, -2.752516153331504E+08, 3.020755379438847E+05,
2461323.500000000, A.D. 2026-Oct-10 00:00:00.0000, 3.832781952595651E+08, -2.660458346337098E+08, 3.843046216267347E+05,
2461330.500000000, A.D. 2026-Oct-17 00:00:00.0000, 3.876423313568020E+08, -2.567129347583039E+08, 4.663497619903684E+05,
2461337.500000000, A.D. 2026-Oct-24 00:00:00.0000, 3.918192498464192E+08, -2.472560878022101E+08, 5.481693787075281E+05,
2461344.500000000, A.D. 2026-Oct-31 00:00:00.0000, 3.958049336478998E+08, -2.376786022310527E+08, 6.297210852785110E+05,
2461351.500000000, A.D. 2026-Nov-07 00:00:00.0000, 3.995953891571629E+08, -2.279839257953058E+08, 7.109616244828999E+05,
2461358.500000000, A.D. 2026-Nov-14 00:00:00.0000, 4.031866519228293E+08, -2.181756475576457E+08, 7.918468130601048E+05,
2461365.500000000, A.D. 2026-Nov-21 00:00:00.0000, 4.065747913844169E+08, -2.082574983370349E+08, 8.723317180394828E+05,
2461372.500000000, A.D. 2026-Nov-28 00:00:00.0000, 4.097559136780649E+08, -1.982333525631432E+08, 9.523709108301997E+05,
2461379.500000000, A.D. 2026-Dec-05 00:00:00.0000, 4.127261661306186E+08, -1.881072321802709E+08, 1.031918413671002E+06,
2461386.500000000, A.D. 2026-Dec-12 00:00:00.0000, 4.154817436087160E+08, -1.778833094710527E+08, 1.110927577888168E+06,
2461393.500000000, A.D. 2026-Dec-19 00:00:00.0000, 4.180188948375261E+08, -1.675659087748635E+08, 1.189351068006426E+06,
2461400.500000000, A.D. 2026-Dec-26 00:00:00.0000, 4.203339285473763E+08, -1.571595079499124E+08, 1.267140894210435E+06,
2461407.500000000, A.D. 2027-Jan-02 00:00:00.0000, 4.224232197231232E+08, -1.466687397500725E+08, 1.344248452559173E+06,
2461414.500000000, A.D. 2027-Jan-09 00:00:00.0000, 4.242832160706030E+08, -1.360983930756443E+08, 1.420624564129427E+06,
2461421.500000000, A.D. 2027-Jan-16 00:00:00.0000, 4.259104447311666E+08, -1.254534140679968E+08, 1.496219510778196E+06,
2461428.500000000, A.D. 2027-Jan-23 00:00:00.0000, 4.273015192840044E+08, -1.147389070660587E+08, 1.570983060201839E+06,
2461435.500000000, A.D. 2027-Jan-30 00:00:00.0000, 4.284531472151868E+08, -1.039601354502787E+08, 1.644864459157914E+06,
2461442.500000000, A.D. 2027-Feb-06 00:00:00.0000, 4.293621382667100E+08, -9.312252201047325E+07, 1.717812383546636E+06,
2461449.500000000, A.D. 2027-Feb-13 00:00:00.0000, 4.300254131934432E+08, -8.223164759288205E+07, 1.789774987280902E+06,
2461456.500000000, A.D. 2027-Feb-20 00:00:00.0000, 4.304400105532277E+08, -7.129324879384536E+07, 1.860700202300861E+06,
2461463.500000000, A.D. 2027-Feb-27 00:00:00.0000, 4.306030929114545E+08, -6.031321789178559E+07, 1.930535898915268E+06,
2461470.500000000, A.D. 2027-Mar-06 00:00:00.0000, 4.305119554590056E+08, -4.929760307112660E+07, 1.999229786404526E+06,
2461477.500000000, A.D. 2027-Mar-13 00:00:00.0000, 4.301640354235123E+08, -3.825260686406036E+07, 2.066729367975080E+06,
2461484.500000000, A.D. 2027-Mar-20 00:00:00.0000, 4.295569211237651E+08, -2.718458362126250E+07, 2.132981985365937E+06,
2461491.500000000, A.D. 2027-Mar-27 00:00:00.0000, 4.286883608460774E+08, -1.610003653792123E+07, 2.197934889628419E+06,
2461498.500000000, A.D. 2027-Apr-03 00:00:00.0000, 4.275562717196686E+08, -5.005614261030043E+06, 2.261535315476996E+06,
2461505.500000000, A.D. 2027-Apr-10 00:00:00.0000, 4.261587486240292E+08, 6.091892965937333E+06, 2.323730555413389E+06,
2461512.500000000, A.D. 2027-Apr-17 00:00:00.0000, 4.244940731198746E+08, 1.718555762617422E+07, 2.384468030396091E+06,
2461519.500000000, A.D. 2027-Apr-24 00:00:00.0000, 4.225607224503241E+08, 2.826831967596941E+07, 2.443695344678482E+06,
2461526.500000000, A.D. 2027-May-01 00:00:00.0000, 4.203573788765497E+08, 3.933299175717009E+07, 2.501360299467498E+06,
2461533.500000000, A.D. 2027-May-08 00:00:00.0000, 4.178829396156173E+08, 5.037226563681100E+07, 2.557410898106553E+06,
2461540.500000000, A.D. 2027-May-15 00:00:00.0000, 4.151365258421582E+08, 6.137872083937834E+07, 2.611795557997189E+06,
2461547.500000000, A.D. 2027-May-22 00:00:00.0000, 4.121174891501265E+08, 7.234483288807572E+07, 2.664463461037684E+06,
2461554.500000000, A.D. 2027-May-29 00:00:00.0000, 4.088254187854245E+08, 8.326297968841569E+07, 2.715364614297662E+06,
2461561.500000000, A.D. 2027-Jun-05 00:00:00.0000, 4.052601504821514E+08, 9.412544918637228E+07, 2.764449795048505E+06,
2461568.500000000, A.D. 2027-Jun-12 00:00:00.0000, 4.014217748431275E+08, 1.049244487330705E+08, 2.811670599285670E+06,
2461575.500000000, A.D. 2027-Jun-19 00:00:00.0000, 3.973106448841646E+08, 1.156521152181572E+08, 2.856979547701418E+06,
2461582.500000000, A.D. 2027-Jun-26 00:00:00.0000, 3.929273829735188E+08, 1.263005257028215E+08, 2.900330202268668E+06,
2461589.500000000, A.D. 2027-Jul-03 00:00:00.0000, 3.882728872509500E+08, 1.368617085471509E+08, 2.941677282123357E+06,
2461596.500000000, A.D. 2027-Jul-10 00:00:00.0000, 3.833483375146093E+08, 1.473276550211160E+08, 2.980976776071772E+06,
2461603.500000000, A.D. 2027-Jul-17 00:00:00.0000, 3.781552005625206E+08, 1.576903313358671E+08, 3.018186045073763E+06,
2461610.500000000, A.D. 2027-Jul-24 00:00:00.0000, 3.726952350955955E+08, 1.679416910035172E+08, 3.053263894974224E+06,
2461617.500000000, A.D. 2027-Jul-31 00:00:00.0000, 3.669704965449459E+08, 1.780736877265370E+08, 3.086170600554168E+06,
2461624.500000000, A.D. 2027-Aug-07 00:00:00.0000, 3.609833415730888E+08, 1.880782899283973E+08, 3.116867992783517E+06,
2461631.500000000, A.D. 2027-Aug-14 00:00:00.0000, 3.547364298993204E+08, 1.979474966306138E+08, 3.145319799387336E+06,
2461638.500000000, A.D. 2027-Aug-21 00:00:00.0000, 3.482327240281359E+08, 2.076733512679331E+08, 3.171491907022774E+06,
2461645.500000000, A.D. 2027-Aug-28 00:00:00.0000, 3.414754902755542E+08, 2.172479545915461E+08, 3.195352327884793E+06,
2461652.500000000, A.D. 2027-Sep-04 00:00:00.0000, 3.344682998749092E+08, 2.266634791046900E+08, 3.216871182658702E+06,
2461659.500000000, A.D. 2027-Sep-11 00:00:00.0000, 3.272150287346556E+08, 2.359121843095256E+08, 3.236020773072988E+06,
2461666.500000000, A.D. 2027-Sep-18 00:00:00.0000, 3.197198559554432E+08, 2.449864320519828E+08, 3.252775677992746E+06,
2461673.500000000, A.D. 2027-Sep-25 00:00:00.0000, 3.119872613148157E+08, 2.538787018204684E+08, 3.267112844951078E+06,
2461680.500000000, A.D. 2027-Oct-02 00:00:00.0000, 3.040220217796602E+08, 2.625816059568136E+08, 3.279011671717837E+06,
2461687.500000000, A.D. 2027-Oct-09 00:00:00.0000, 2.958292070599884E+08, 2.710879047036659E+08, 3.288454074748680E+06,
2461694.500000000, A.D. 2027-Oct-16 00:00:00.0000, 2.874141742648115E+08, 2.793905209607089E+08, 3.295424533583149E+06,
2461701.500000000, A.D. 2027-Oct-23 00:00:00.0000, 2.787825619247194E+08, 2.874825546704957E+08, 3.299910086305305E+06,
2461708.500000000, A.D. 2027-Oct-30 00:00:00.0000, 2.699402837682650E+08, 2.953572973693749E+08, 3.301900290902555E+06,
2461715.500000000, A.D. 2027-Nov-06 00:00:00.0000, 2.608935211056526E+08, 3.030082479535155E+08, 3.301387350631163E+06,
2461722.500000000, A.D. 2027-Nov-13 00:00:00.0000, 2.516487118535689E+08, 3.104291275083610E+08, 3.298366415669307E+06,
2461729.500000000, A.D. 2027-Nov-20 00:00:00.0000, 2.422125391339850E+08, 3.176138909478161E+08, 3.292835616363242E+06,
2461736.500000000, A.D. 2027-Nov-27 00:00:00.0000, 2.325919211039332E+08, 3.245567383580545E+08, 3.284795921391934E+06,
2461743.500000000, A.D. 2027-Dec-04 00:00:00.0000, 2.227940000336823E+08, 3.312521268917828E+08, 3.274251080786511E+06,
2461750.500000000, A.D. 2027-Dec-11 00:00:00.0000, 2.128261301300207E+08, 3.376947821879031E+08, 3.261207625555918E+06,
2461757.500000000, A.D. 2027-Dec-18 00:00:00.0000, 2.026958644345121E+08, 3.438797089221071E+08, 3.245674871103719E+06,
2461764.500000000, A.D. 2027-Dec-25 00:00:00.0000, 1.924109410097830E+08, 3.498022004357423E+08, 3.227664910474494E+06,
2461771.500000000, A.D. 2028-Jan-01 00:00:00.0000, 1.819792685212379E+08, 3.554578474120150E+08, 3.207192595049009E+06,
$$EOE